NORAD_CAT_ID,OBJECT_NAME,OBJECT_TYPE,EPOCH,MEAN_MOTION,ECCENTRICITY,INCLINATION,RA_OF_ASC_NODE,ARG_OF_PERICENTER,MEAN_ANOMALY,BSTAR,MEAN_MOTION_DOT,MEAN_MOTION_DDOT,TLE_LINE0,TLE_LINE1,TLE_LINE2,SEMIMAJOR_AXIS,PERIOD,APOGEE,PERIGEE,DECAYED
54075.0,STARLINK-5212,PAYLOAD,2023-04-24 01:05:02,15.10501084,0.0001107,53.2181,15.5659,84.8494,275.2626,0.00024252,3.75e-05,0.0,0 STARLINK-5212,1 54075U 22136AA  23114.04516366  .00003750  00000-0  24252-3 0  9990,2 54075  53.2181  15.5659 0001107  84.8494 275.2626 15.10501084 28780,6912.808,95.333,535.438,533.908,0.0
54075.0,STARLINK-5212,PAYLOAD,2023-04-25 07:15:21,15.10527248,8.03e-05,53.2173,9.9084,136.1493,223.9564,0.00042198,6.749e-05,0.0,0 STARLINK-5212,1 54075U 22136AA  23115.30232801  .00006749  00000-0  42198-3 0  9999,2 54075  53.2173   9.9084 0000803 136.1493 223.9564 15.10527248 28974,6912.728,95.331,535.148,534.038,0.0
54075.0,STARLINK-5212,PAYLOAD,2023-04-26 03:54:05,15.10414816,9.75e-05,53.2169,6.0366,101.1659,258.9444,-0.00072198,-0.00012271,0.0,0 STARLINK-5212,1 54075U 22136AA  23116.16255808 -.00012271  00000-0 -72198-3 0  9998,2 54075  53.2169   6.0366 0000975 101.1659 258.9444 15.10414816 28629,6913.071,95.338,535.61,534.262,0.0
54075.0,STARLINK-5212,PAYLOAD,2023-04-26 22:57:29,15.10458961,8.03e-05,53.2182,2.4653,104.7355,255.3727,0.0011301,0.00018561,0.0,0 STARLINK-5212,1 54075U 22136AA  23116.95659186  .00018561  00000-0  11301-2 0  9996,2 54075  53.2182   2.4653 0000803 104.7355 255.3727 15.10458961 28742,6912.936,95.335,535.356,534.246,0.0
54075.0,STARLINK-5212,PAYLOAD,2023-04-27 16:25:35,15.10495143,9.73e-05,53.2176,359.1876,103.5219,256.5882,0.0010785,0.00017716,0.0,0 STARLINK-5212,1 54075U 22136AA  23117.68443478  .00017716  00000-0  10785-2 0  9998,2 54075  53.2176 359.1876 0000973 103.5219 256.5882 15.10495143 29332,6912.826,95.333,535.364,534.018,0.0
54075.0,STARLINK-5212,PAYLOAD,2023-04-28 01:57:15,15.10518622,0.0001012,53.2172,357.399,107.0873,253.0231,0.0012063,0.00019869,0.0,0 STARLINK-5212,1 54075U 22136AA  23118.08143306  .00019869  00000-0  12063-2 0  9992,2 54075  53.2172 357.3990 0001012 107.0873 253.0231 15.10518622 29399,6912.754,95.331,535.319,533.92,0.0
54075.0,STARLINK-5212,PAYLOAD,2023-04-28 21:00:39,15.10485419,9.37e-05,53.2175,353.827,113.7697,246.3394,0.00018684,2.82e-05,0.0,0 STARLINK-5212,1 54075U 22136AA  23118.87545285  .00002820  00000-0  18684-3 0  9996,2 54075  53.2175 353.8270 0000937 113.7697 246.3394 15.10485419 29513,6912.856,95.334,535.368,534.073,0.0
54075.0,STARLINK-5212,PAYLOAD,2023-04-29 01:46:30,15.10481041,0.0001014,53.2181,352.9335,92.6475,267.4634,0.00024736,3.828e-05,0.0,0 STARLINK-5212,1 54075U 22136AA  23119.07395919  .00003828  00000-0  24736-3 0  9990,2 54075  53.2181 352.9335 0001014  92.6475 267.4634 15.10481041 29066,6912.869,95.334,535.435,534.033,0.0
54075.0,STARLINK-5212,PAYLOAD,2023-04-29 19:14:36,15.10481843,0.0001088,53.2181,349.6584,92.3714,267.7403,0.00030882,4.853e-05,0.0,0 STARLINK-5212,1 54075U 22136AA  23119.80180985  .00004853  00000-0  30882-3 0  9994,2 54075  53.2181 349.6584 0001088  92.3714 267.7403 15.10481843 29651,6912.866,95.334,535.484,533.979,0.0
54075.0,STARLINK-5212,PAYLOAD,2023-04-30 00:00:26,15.10488117,0.0001135,53.2182,348.7656,92.016,268.0963,0.00047764,7.67e-05,0.0,0 STARLINK-5212,1 54075U 22136AA  23120.00031234  .00007670  00000-0  47764-3 0  9997,2 54075  53.2182 348.7656 0001135  92.0160 268.0963 15.10488117 29204,6912.847,95.333,535.497,533.928,0.0
54075.0,STARLINK-5212,PAYLOAD,2023-04-30 20:39:07,15.10479053,0.0001089,53.2173,344.8932,93.5988,266.5129,0.00011758,1.666e-05,0.0,0 STARLINK-5212,1 54075U 22136AA  23120.86050011  .00001666  00000-0  11758-3 0  9998,2 54075  53.2173 344.8932 0001089  93.5988 266.5129 15.10479053 29813,6912.875,95.334,535.493,533.987,0.0
54075.0,STARLINK-5212,PAYLOAD,2023-04-30 23:49:40,15.10484488,0.0001009,53.2166,344.297,97.6455,262.4653,0.00023809,3.674e-05,0.0,0 STARLINK-5212,1 54075U 22136AA  23120.99283527  .00003674  00000-0  23809-3 0  9993,2 54075  53.2166 344.2970 0001009  97.6455 262.4653 15.10484488 29351,6912.858,95.334,535.421,534.026,0.0
54075.0,STARLINK-5212,PAYLOAD,2023-05-01 22:03:37,15.10482778,0.0001038,53.2166,340.1279,96.2006,263.9105,0.00022728,3.494e-05,0.0,0 STARLINK-5212,1 54075U 22136AA  23121.91918867  .00003494  00000-0  22728-3 0  9997,2 54075  53.2166 340.1279 0001038  96.2006 263.9105 15.10482778 29973,6912.864,95.334,535.446,534.011,0.0
54075.0,STARLINK-5212,PAYLOAD,2023-05-02 13:56:27,15.10479272,9.82e-05,53.2156,337.1496,101.5473,258.5631,0.00027657,4.315e-05,0.0,0 STARLINK-5212,1 54075U 22136AA  23122.58087282  .00004315  00000-0  27657-3 0  9998,2 54075  53.2156 337.1496 0000982 101.5473 258.5631 15.10479272 30076,6912.874,95.334,535.418,534.06,0.0
54075.0,STARLINK-5212,PAYLOAD,2023-05-02 20:17:34,15.10483297,0.0001001,53.2158,335.9586,102.033,258.0775,0.00028915,4.525e-05,0.0,0 STARLINK-5212,1 54075U 22136AA  23122.84554378  .00004525  00000-0  28915-3 0  9993,2 54075  53.2158 335.9586 0001001 102.0330 258.0775 15.10483297 29631,6912.862,95.334,535.419,534.035,0.0
54075.0,STARLINK-5212,PAYLOAD,2023-05-03 13:45:41,15.10474502,0.000123,53.2158,332.6827,79.08,281.0331,1.4647e-05,-4.9e-07,0.0,0 STARLINK-5212,1 54075U 22136AA  23123.57339742 -.00000049  00000-0  14647-4 0  9996,2 54075  53.2158 332.6827 0001230  79.0800 281.0331 15.10474502 30222,6912.889,95.334,535.604,533.904,0.0
54075.0,STARLINK-5212,PAYLOAD,2023-05-03 20:06:49,15.10471963,0.0001256,53.2167,331.4926,74.9303,285.1829,2.5169e-07,-2.88e-06,0.0,0 STARLINK-5212,1 54075U 22136AA  23123.83807387 -.00000288  00000-0  25169-6 0  9998,2 54075  53.2167 331.4926 0001256  74.9303 285.1829 15.10471963 29783,6912.897,95.334,535.63,533.893,0.0
54075.0,STARLINK-5212,PAYLOAD,2023-05-04 13:34:55,15.10480125,0.0001169,53.2163,328.2152,82.0071,278.1055,9.8158e-05,1.342e-05,0.0,0 STARLINK-5212,1 54075U 22136AA  23124.56592079  .00001342  00000-0  98158-4 0  9995,2 54075  53.2163 328.2152 0001169  82.0071 278.1055 15.10480125 29894,6912.872,95.334,535.545,533.929,0.0
54075.0,STARLINK-5212,PAYLOAD,2023-05-04 19:56:02,15.1048571,0.0001047,53.2156,327.0237,83.6829,276.4283,0.00017581,2.636e-05,0.0,0 STARLINK-5212,1 54075U 22136AA  23124.83058992  .00002636  00000-0  17581-3 0  9993,2 54075  53.2156 327.0237 0001047  83.6829 276.4283 15.10485710 29934,6912.855,95.334,535.443,533.996,0.0
54075.0,STARLINK-5212,PAYLOAD,2023-05-04 23:06:36,15.10486401,0.0001043,53.2158,326.4283,85.6192,274.492,0.00019515,2.959e-05,0.0,0 STARLINK-5212,1 54075U 22136AA  23124.96292579  .00002959  00000-0  19515-3 0  9995,2 54075  53.2158 326.4283 0001043  85.6192 274.4920 15.10486401 30432,6912.853,95.334,535.439,533.997,0.0
54075.0,STARLINK-5212,PAYLOAD,2023-05-05 14:59:26,15.10475745,9.89e-05,53.2169,323.4529,66.414,293.6957,0.00012959,1.865e-05,0.0,0 STARLINK-5212,1 54075U 22136AA  23125.62461381  .00001865  00000-0  12959-3 0  9998,2 54075  53.2169 323.4529 0000989  66.4140 293.6957 15.10475745 30535,6912.885,95.334,535.434,534.066,0.0
54075.0,STARLINK-5212,PAYLOAD,2023-05-05 19:45:17,15.10485004,0.0001054,53.2156,322.5576,83.3747,276.7366,0.00028214,4.409e-05,0.0,0 STARLINK-5212,1 54075U 22136AA  23125.82311476  .00004409  00000-0  28214-3 0  9997,2 54075  53.2156 322.5576 0001054  83.3747 276.7366 15.10485004 30083,6912.857,95.334,535.45,533.993,0.0
54075.0,STARLINK-5212,PAYLOAD,2023-05-06 19:34:30,15.10494433,0.0001062,53.2153,318.0899,89.71,270.4014,0.00045786,7.341e-05,0.0,0 STARLINK-5212,1 54075U 22136AA  23126.81563275  .00007341  00000-0  45786-3 0  9994,2 54075  53.2153 318.0899 0001062  89.7100 270.4014 15.10494433 30234,6912.828,95.333,535.427,533.959,0.0
54075.0,STARLINK-5212,PAYLOAD,2023-05-07 19:23:45,15.10468319,9.46e-05,53.2156,313.6226,79.1848,280.9252,2.0431e-05,4.8e-07,0.0,0 STARLINK-5212,1 54075U 22136AA  23127.80816599  .00000048  00000-0  20431-4 0  9992,2 54075  53.2156 313.6226 0000946  79.1848 280.9252 15.10468319 30867,6912.908,95.335,535.427,534.119,0.0
54075.0,STARLINK-5212,PAYLOAD,2023-05-08 19:12:59,15.10491099,9.36e-05,53.2154,309.1558,69.8046,290.3048,0.00075329,0.00012275,0.0,0 STARLINK-5212,1 54075U 22136AA  23128.80068722  .00012275  00000-0  75329-3 0  9990,2 54075  53.2154 309.1558 0000936  69.8046 290.3048 15.10491099 30531,6912.838,95.333,535.35,534.056,0.0
54075.0,STARLINK-5212,PAYLOAD,2023-05-09 04:44:40,15.10484515,8.17e-05,53.2147,307.3724,79.0146,281.0938,0.00043923,7.029e-05,0.0,0 STARLINK-5212,1 54075U 22136AA  23129.19769580  .00007029  00000-0  43923-3 0  9999,2 54075  53.2147 307.3724 0000817  79.0146 281.0938 15.10484515 31070,6912.858,95.334,535.288,534.159,0.0
54075.0,STARLINK-5212,PAYLOAD,2023-05-10 04:33:54,15.10480887,9.74e-05,53.2151,302.9018,77.7728,282.3374,9.4071e-05,1.274e-05,0.0,0 STARLINK-5212,1 54075U 22136AA  23130.19021685  .00001274  00000-0  94071-4 0  9995,2 54075  53.2151 302.9018 0000974  77.7728 282.3374 15.10480887 30746,6912.869,95.334,535.408,534.061,0.0
54075.0,STARLINK-5212,PAYLOAD,2023-05-10 20:26:43,15.10486432,8.85e-05,53.2162,299.9264,75.2413,284.8678,0.00016529,2.461e-05,0.0,0 STARLINK-5212,1 54075U 22136AA  23130.85189487  .00002461  00000-0  16529-3 0  9993,2 54075  53.2162 299.9264 0000885  75.2413 284.8678 15.10486432 30848,6912.852,95.334,535.329,534.106,0.0
54075.0,STARLINK-5212,PAYLOAD,2023-05-11 04:23:08,15.1048042,9.58e-05,53.2155,298.4359,78.8645,281.2455,9.2704e-05,1.251e-05,0.0,0 STARLINK-5212,1 54075U 22136AA  23131.18273914  .00001251  00000-0  92704-4 0  9995,2 54075  53.2155 298.4359 0000958  78.8645 281.2455 15.10480420 30896,6912.871,95.334,535.398,534.074,0.0
54075.0,STARLINK-5212,PAYLOAD,2023-05-11 17:05:24,15.10477498,0.0001015,53.2158,296.0549,74.7285,285.382,0.00010291,1.421e-05,0.0,0 STARLINK-5212,1 54075U 22136AA  23131.71208698  .00001421  00000-0  10291-3 0  9990,2 54075  53.2158 296.0549 0001015  74.7285 285.3820 15.10477498 31459,6912.88,95.334,535.446,534.043,0.0
